OBJECT_NAME,OBJECT_ID,EPOCH,MEAN_MOTION,ECCENTRICITY,INCLINATION,RA_OF_ASC_NODE,ARG_OF_PERICENTER,MEAN_ANOMALY,EPHEMERIS_TYPE,CLASSIFICATION_TYPE,NORAD_CAT_ID,ELEMENT_SET_NO,REV_AT_EPOCH,BSTAR,MEAN_MOTION_DOT,MEAN_MOTION_DDOT
LAOSAT 1,2015-067A,2026-07-02T19:57:00.725760,1.00268298,.0002367,0.0099,252.1157,164.3869,292.0854,0,U,41034,999,3901,0,-.332E-5,0
TELSTAR 12V,2015-068A,2026-07-02T19:02:40.381152,1.00271494,.0002506,0.0182,29.6084,67.7828,94.1143,0,U,41036,999,3878,0,-.108E-5,0
ELEKTRO-L 2,2015-074A,2026-07-01T22:30:52.736832,1.00271077,.00005169,6.7296,70.3426,273.6365,259.1662,0,U,41105,999,3865,0,-.111E-5,0
COSMOS 2513,2015-075A,2026-07-01T04:08:45.512736,1.00269937,.00033373,0.0693,102.1065,336.0950,343.4555,0,U,41121,999,3868,0,-.127E-5,0
EXPRESS-AMU1,2015-082A,2026-07-02T20:40:55.313184,1.00275787,.0003033,0.0176,339.5708,131.2025,156.4779,0,U,41191,999,3842,0,.166E-5,0
GAOFEN-4,2015-083A,2026-07-01T14:31:54.862176,1.00268667,.00042432,0.3936,83.8387,111.7154,47.7566,0,U,41194,999,3867,0,-.324E-5,0
BELINTERSAT-1,2016-001A,2026-07-02T18:24:59.084064,1.00273073,.0001721,0.0064,58.6701,11.2750,178.5985,0,U,41238,999,3839,0,.117E-5,0
IRNSS-1E,2016-003A,2026-06-29T19:51:21.425184,1.00272765,.00192006,33.2608,59.5670,178.7998,89.1855,0,U,41241,999,3820,0,-.31E-5,0
EUTELSAT 9B,2016-005A,2026-07-02T19:09:29.752128,1.00271772,.000155,0.0579,69.6460,8.0494,139.4965,0,U,41310,999,3827,0,.72E-6,0
SES-9,2016-013A,2026-07-02T19:34:49.098720,1.00269164,.0002509,0.0192,321.8365,134.2194,226.7944,0,U,41380,999,3759,0,-.334E-5,0
EUTELSAT 65 WEST A,2016-014A,2026-07-02T10:15:01.840032,1.00269778,.0002751,0.0835,302.9756,158.9452,267.0913,0,U,41382,999,3767,0,-.266E-5,0
IRNSS-1F,2016-015A,2026-07-02T18:59:41.147808,1.00275352,.0017427,5.3872,96.4274,183.9956,317.7701,0,U,41384,999,3782,0,.166E-5,0
BEIDOU-2 IGSO-6,2016-021A,2026-06-26T02:38:38.671584,1.00258926,.0057558,60.2385,37.9495,231.0163,137.2672,0,U,41434,999,3757,0,-.145E-5,0
IRNSS-1G,2016-027A,2026-07-02T19:49:11.001792,1.00279606,.0005815,5.2333,97.1137,5.9464,244.6290,0,U,41469,999,3733,0,-.326E-5,0
JCSAT-2B,2016-028A,2026-07-02T18:08:08.668032,1.00270634,.0001187,0.0185,19.0750,82.2893,245.4710,0,U,41471,999,3728,0,-.155E-5,0
THAICOM 8,2016-031A,2026-07-02T18:58:17.063328,1.00272250,.0003638,0.0533,29.4549,39.8925,214.5458,0,U,41552,999,3687,0,-.111E-5,0
INTELSAT 31 (IS-31),2016-035A,2026-07-02T13:31:51.138048,1.00274605,.0000566,0.0275,259.9848,356.1386,132.3882,0,U,41581,999,3683,0,-.141E-5,0
BEIDOU-2 G7,2016-037A,2026-07-02T21:21:05.912928,1.00269372,.0006763,1.7570,69.4388,3.8377,278.4583,0,U,41586,999,704,0,-.343E-5,0
ABS-2A (MONGOLSAT-1),2016-038A,2026-07-02T18:55:07.569120,1.00268399,.0001704,0.0245,27.4936,22.7386,229.1190,0,U,41588,999,3686,0,0,0
EUTELSAT 117 WEST B,2016-038B,2026-07-02T15:08:14.201088,1.00268475,.0000328,0.0082,201.6637,106.1903,82.8636,0,U,41589,999,3681,0,0,0
BRISAT,2016-039A,2026-07-02T16:44:02.918400,1.00272235,.0002374,0.0191,357.6913,96.7774,227.7753,0,U,41591,999,3676,0,0,0
ECHOSTAR 18,2016-039B,2026-07-02T18:49:19.161120,1.00267824,.0001652,0.0248,39.9933,65.0389,36.7534,0,U,41592,999,3678,0,0,0
MUOS-5,2016-041A,2026-07-02T16:53:47.601024,1.00273111,.0198514,2.1716,301.9328,260.5727,226.5194,0,U,41622,999,3724,0,-.11E-5,0
TIANTONG-1 1,2016-048A,2026-07-02T11:10:59.096064,1.00268400,.0005837,3.8768,43.5311,54.1560,91.9456,0,U,41725,999,3642,0,-.308E-5,0
JCSAT-16,2016-050A,2026-07-02T20:35:34.014048,1.00270937,.0001216,0.0184,22.7269,83.0580,267.9549,0,U,41729,999,3622,0,-.24E-5,0
USA 270,2016-052A,2026-06-25T15:01:47.554176,0.99500516,.0000668,4.2178,77.0981,157.1810,56.2495,0,U,41744,999,2821,0,-.284E-5,0
USA 271,2016-052B,2026-06-25T18:13:09.824736,0.99833204,.0001955,4.1909,77.1447,290.7679,281.9940,0,U,41745,999,2800,0,-.236E-5,0
INTELSAT 36 (IS-36),2016-053A,2026-07-02T19:50:53.670912,1.00270238,.0002007,0.0098,12.9079,336.4355,297.7405,0,U,41747,999,3611,0,-.13E-6,0
INSAT-3DR,2016-054A,2026-07-02T10:54:40.578912,1.00272241,.0010094,0.1421,85.9447,186.2693,245.9301,0,U,41752,999,3597,0,-.66E-6,0
GSAT-18,2016-060A,2026-07-02T02:21:28.546848,1.00269601,.00058652,0.0191,46.8359,29.5242,313.1304,0,U,41793,999,3567,0,0,0
SKY MUSTER 2 (NBN1B),2016-060B,2026-07-02T16:42:51.196032,1.00266625,.0001712,0.0194,20.6139,87.1525,208.4708,0,U,41794,999,3567,0,0,0
HIMAWARI-9,2016-064A,2026-07-02T16:41:28.736736,1.00268231,.0001438,0.0302,267.9360,225.4185,178.4790,0,U,41836,999,3536,0,-.265E-5,0
