LAOSAT 1                
1 41034U 15067A   26183.83125840 -.00000332  00000+0  00000+0 0  9999
2 41034   0.0099 252.1157 0002367 164.3869 292.0854  1.00268298 39019
TELSTAR 12V             
1 41036U 15068A   26183.79352293 -.00000108  00000+0  00000+0 0  9992
2 41036   0.0182  29.6084 0002506  67.7828  94.1143  1.00271494 38783
ELEKTRO-L 2             
1 41105U 15074A   26182.93811038 -.00000111  00000+0  00000+0 0  9992
2 41105   6.7296  70.3426 0000516 273.6365 259.1662  1.00271077 38657
COSMOS 2513             
1 41121U 15075A   26182.17274899 -.00000127  00000+0  00000+0 0  9992
2 41121   0.0693 102.1065 0003337 336.0950 343.4555  1.00269937 38687
EXPRESS-AMU1            
1 41191U 15082A   26183.86175131  .00000166  00000+0  00000+0 0  9995
2 41191   0.0176 339.5708 0003033 131.2025 156.4779  1.00275787 38423
GAOFEN-4                
1 41194U 15083A   26182.60549609 -.00000324  00000+0  00000+0 0  9992
2 41194   0.3936  83.8387 0004243 111.7154  47.7566  1.00268667 38677
BELINTERSAT-1           
1 41238U 16001A   26183.76735051  .00000117  00000+0  00000+0 0  9997
2 41238   0.0064  58.6701 0001721  11.2750 178.5985  1.00273073 38393
IRNSS-1E                
1 41241U 16003A   26180.82733131 -.00000310  00000+0  00000+0 0  9990
2 41241  33.2608  59.5670 0019200 178.7998  89.1855  1.00272765 38208
EUTELSAT 9B             
1 41310U 16005A   26183.79826102  .00000072  00000+0  00000+0 0  9993
2 41310   0.0579  69.6460 0001550   8.0494 139.4965  1.00271772 38273
SES-9                   
1 41380U 16013A   26183.81584605 -.00000334  00000+0  00000+0 0  9993
2 41380   0.0192 321.8365 0002509 134.2194 226.7944  1.00269164 37595
EUTELSAT 65 WEST A      
1 41382U 16014A   26183.42710463 -.00000266  00000+0  00000+0 0  9990
2 41382   0.0835 302.9756 0002751 158.9452 267.0913  1.00269778 37678
IRNSS-1F                
1 41384U 16015A   26183.79144847  .00000166  00000+0  00000+0 0  9998
2 41384   5.3872  96.4274 0017427 183.9956 317.7701  1.00275352 37822
BEIDOU-2 IGSO-6         
1 41434U 16021A   26177.11016981 -.00000145  00000+0  00000+0 0  9995
2 41434  60.2385  37.9495 0057558 231.0163 137.2672  1.00258926 37578
IRNSS-1G                
1 41469U 16027A   26183.82582178 -.00000326  00000+0  00000+0 0  9991
2 41469   5.2333  97.1137 0005815   5.9464 244.6290  1.00279606 37331
JCSAT-2B                
1 41471U 16028A   26183.75565588 -.00000155  00000+0  00000+0 0  9993
2 41471   0.0185  19.0750 0001187  82.2893 245.4710  1.00270634 37280
THAICOM 8               
1 41552U 16031A   26183.79047527 -.00000111  00000+0  00000+0 0  9991
2 41552   0.0533  29.4549 0003638  39.8925 214.5458  1.00272250 36871
INTELSAT 31 (IS-31)     
1 41581U 16035A   26183.56378632 -.00000141  00000+0  00000+0 0  9999
2 41581   0.0275 259.9848 0000566 356.1386 132.3882  1.00274605 36831
BEIDOU-2 G7             
1 41586U 16037A   26183.88965177 -.00000343  00000+0  00000+0 0  9991
2 41586   1.7570  69.4388 0006763   3.8377 278.4583  1.00269372  7042
ABS-2A (MONGOLSAT-1)    
1 41588U 16038A   26183.78828205  .00000000  00000+0  00000+0 0  9992
2 41588   0.0245  27.4936 0001704  22.7386 229.1190  1.00268399 36865
EUTELSAT 117 WEST B     
1 41589U 16038B   26183.63071992  .00000000  00000+0  00000+0 0  9990
2 41589   0.0082 201.6637 0000328 106.1903  82.8636  1.00268475 36811
BRISAT                  
1 41591U 16039A   26183.69725600  .00000000  00000+0  00000+0 0  9992
2 41591   0.0191 357.6913 0002374  96.7774 227.7753  1.00272235 36760
ECHOSTAR 18             
1 41592U 16039B   26183.78424955  .00000000  00000+0  00000+0 0  9992
2 41592   0.0248  39.9933 0001652  65.0389  36.7534  1.00267824 36780
MUOS-5                  
1 41622U 16041A   26183.70402316 -.00000110  00000+0  00000+0 0  9991
2 41622   2.1716 301.9328 0198514 260.5727 226.5194  1.00273111 37248
TIANTONG-1 1            
1 41725U 16048A   26183.46596176 -.00000308  00000+0  00000+0 0  9992
2 41725   3.8768  43.5311 0005837  54.1560  91.9456  1.00268400 36424
JCSAT-16                
1 41729U 16050A   26183.85803257 -.00000240  00000+0  00000+0 0  9998
2 41729   0.0184  22.7269 0001216  83.0580 267.9549  1.00270937 36224
USA 270                 
1 41744U 16052A   26176.62624484 -.00000284  00000+0  00000+0 0  9995
2 41744   4.2178  77.0981 0000668 157.1810  56.2495  0.99500516 28218
USA 271                 
1 41745U 16052B   26176.75914149 -.00000236  00000+0  00000+0 0  9997
2 41745   4.1909  77.1447 0001955 290.7679 281.9940  0.99833204 28007
INTELSAT 36 (IS-36)     
1 41747U 16053A   26183.82701008 -.00000013  00000+0  00000+0 0  9997
2 41747   0.0098  12.9079 0002007 336.4355 297.7405  1.00270238 36116
INSAT-3DR               
1 41752U 16054A   26183.45463633 -.00000066  00000+0  00000+0 0  9990
2 41752   0.1421  85.9447 0010094 186.2693 245.9301  1.00272241 35972
GSAT-18                 
1 41793U 16060A   26183.09824707  .00000000  00000+0  00000+0 0  9992
2 41793   0.0191  46.8359 0005865  29.5242 313.1304  1.00269601 35671
SKY MUSTER 2 (NBN1B)    
1 41794U 16060B   26183.69642588  .00000000  00000+0  00000+0 0  9994
2 41794   0.0194  20.6139 0001712  87.1525 208.4708  1.00266625 35679
HIMAWARI-9              
1 41836U 16064A   26183.69547149 -.00000265  00000+0  00000+0 0  9996
2 41836   0.0302 267.9360 0001438 225.4185 178.4790  1.00268231 35361
